OBJECT_NAME,OBJECT_ID,EPOCH,MEAN_MOTION,ECCENTRICITY,INCLINATION,RA_OF_ASC_NODE,ARG_OF_PERICENTER,MEAN_ANOMALY,EPHEMERIS_TYPE,CLASSIFICATION_TYPE,NORAD_CAT_ID,ELEMENT_SET_NO,REV_AT_EPOCH,BSTAR,MEAN_MOTION_DOT,MEAN_MOTION_DDOT
CALSPHERE 1,1964-063C,2023-11-12T12:15:28.342944,13.74603770,.0024483,90.1986,50.8313,275.3264,96.3164,0,U,900,999,94112,.10434E-2,.1E-4,0
CALSPHERE 2,1964-063E,2023-11-12T13:26:50.886816,13.52770047,.0020434,90.2143,54.2822,98.0675,273.6129,0,U,902,999,72814,.90507E-4,.69E-6,0
LCS 1,1965-034C,2023-11-12T14:14:39.262272,9.89303950,.0005414,32.1414,266.9403,286.6434,73.3469,0,U,1361,999,11604,.1702E-3,.1E-6,0
TEMPSAT 1,1965-065E,2023-11-12T18:54:19.664640,13.33493950,.0070921,89.9461,215.1207,30.3035,38.2964,0,U,1512,999,83377,.13669E-3,.78E-6,0
CALSPHERE 4A,1965-065H,2023-11-12T18:17:15.918720,13.36006859,.006749,89.9564,129.0385,256.0387,115.1448,0,U,1520,999,83660,.26662E-3,.147E-5,0
OPS 5712 (P/L 160),1967-053A,2023-11-12T13:56:03.314688,14.55750781,.0006247,69.9248,161.1745,322.9420,37.1285,0,U,2826,999,92725,.13059E-2,.5663E-4,0
LES-5,1967-066E,2023-11-12T18:58:31.406592,1.09425906,.0055687,0.7968,168.8686,120.3984,148.8598,0,U,2866,999,12066,0,-.79E-6,0
SURCAL 159,1967-053F,2023-11-12T11:54:01.047744,13.99102657,.0009751,69.9743,240.7686,272.1596,87.8394,0,U,2872,999,87762,.16923E-3,.192E-5,0
OPS 5712 (P/L 153),1967-053H,2023-11-12T11:58:35.072256,13.96522784,.000875,69.9746,346.1450,326.7607,33.2948,0,U,2874,999,87445,.10851E-3,.97E-6,0
SURCAL 150B,1967-053J,2023-11-12T20:21:23.506272,14.73329346,.0003488,69.9415,121.7085,336.7171,23.3816,0,U,2909,999,93944,.23548E-2,.15223E-3,0
OPS 3811 (DSP 2),1971-039A,2023-11-12T18:43:51.711168,0.98159624,.0021307,2.2305,283.7675,349.4511,110.8036,0,U,5204,999,1598,0,.1E-6,0
RIGIDSPHERE 2 (LCS 4),1971-067E,2023-11-12T19:57:16.550784,14.35191461,.0063698,87.6242,241.1388,129.0216,231.6677,0,U,5398,999,73809,.38449E-3,.1143E-4,0
OSCAR 7 (AO-7),1974-089B,2023-11-12T11:13:16.395168,12.53669094,.0012293,101.9636,304.2257,139.1057,339.6619,0,U,7530,999,24175,.69875E-4,-.35E-6,0
STARLETTE,1975-010A,2023-11-12T19:59:29.596416,13.82322315,.0205687,49.8251,243.9068,173.4865,186.8775,0,U,7646,999,46348,-.10389E-5,-.144E-5,0
LAGEOS 1,1976-039A,2023-11-12T06:56:54.554784,6.38664864,.0044711,109.8183,214.6333,145.7567,354.5274,0,U,8820,999,85260,0,-.3E-7,0
OPS 8701 (DSP 10),1982-019A,2023-11-12T11:01:04.001376,0.98189852,.0004565,11.2234,316.4314,247.8602,308.7915,0,U,13086,999,1635,0,-.91E-6,0
PHASE 3B (AO-10),1983-058B,2023-11-11T09:09:32.247936,2.05870258,.6036441,27.4513,13.6298,219.6400,75.1194,0,U,14129,999,27595,0,.59E-6,0
UOSAT 2 (UO-11),1984-021B,2023-11-12T11:29:41.655840,14.85585580,.000984,97.6769,287.8737,76.7066,283.5246,0,U,14781,999,11615,.27891E-3,.2363E-4,0
AJISAI (EGS),1986-061A,2023-11-12T14:16:22.219104,12.44502897,.0011125,50.0070,181.1903,289.0095,162.6234,0,U,16908,999,36239,.36191E-3,-.46E-6,0
TDRS 3,1988-091B,2023-11-11T23:20:26.807136,1.00264732,.003887,13.3332,347.4630,330.3749,34.0238,0,U,19548,999,11588,0,-.284E-5,0
COSMOS 1989 (ETALON 1),1989-001C,2023-11-12T15:04:10.809696,2.13156186,.0023994,64.4654,104.7245,214.9253,190.8321,0,U,19751,999,27117,0,.54E-6,0
COSMOS 2024 (ETALON 2),1989-039C,2023-11-12T13:45:44.574048,2.13204401,.0019159,65.4223,342.9725,218.0989,141.6015,0,U,20026,999,26829,0,-.3E-6,0
FLTSATCOM 8 (USA 46),1989-077A,2023-11-12T12:28:42.770208,1.00271940,.000434,12.7036,356.8996,243.2007,124.3265,0,U,20253,999,25112,0,-.35E-5,0
LUSAT (LO-19),1990-005G,2023-11-12T10:39:04.873824,14.33365251,.0012776,98.8628,296.2671,102.7799,257.4813,0,U,20442,999,76658,.12596E-3,.301E-5,0
HST,1990-037B,2023-11-12T12:40:28.007616,15.14813398,.0002838,28.4707,359.9432,178.6199,295.3828,0,U,20580,999,64396,.32192E-3,.6331E-4,0
SKYNET 4C,1990-079A,2023-11-12T18:38:35.922624,1.00271748,.0002829,13.6477,356.3095,234.5555,133.8510,0,U,20776,999,12144,0,.142E-5,0
USA 65 (DSP 15),1990-095A,2023-11-12T06:37:46.343712,0.98397122,.0005666,14.5983,350.7166,98.6400,283.8200,0,U,20929,999,1614,0,-.29E-6,0
TDRS 5,1991-054B,2023-11-12T17:55:37.726752,1.00274377,.002336,14.1909,0.7172,355.8492,156.6803,0,U,21639,999,11820,0,.102E-5,0
USA 75 (DSP 16),1991-080B,2023-11-12T12:08:30.012288,0.99186250,.0005637,14.5200,352.3501,106.1428,246.4191,0,U,21805,999,1630,0,-.185E-5,0
LAGEOS 2,1992-070B,2023-11-12T00:02:43.786752,6.47294240,.0138452,52.6358,145.8766,132.3062,66.9725,0,U,22195,999,73403,0,-.9E-7,0
TDRS 6,1993-003B,2023-11-12T13:53:55.592160,1.00279523,.001005,14.1571,4.0105,163.7821,46.0978,0,U,22314,999,11290,0,-.279E-5,0
