CALSPHERE 1             
1 00900U 64063C   23316.51074471  .00001000  00000+0  10434-2 0  9996
2 00900  90.1986  50.8313 0024483 275.3264  96.3164 13.74603770941128
CALSPHERE 2             
1 00902U 64063E   23316.56031119  .00000069  00000+0  90507-4 0  9990
2 00902  90.2143  54.2822 0020434  98.0675 273.6129 13.52770047728141
LCS 1                   
1 01361U 65034C   23316.59350998  .00000010  00000+0  17020-3 0  9995
2 01361  32.1414 266.9403 0005414 286.6434  73.3469  9.89303950116045
TEMPSAT 1               
1 01512U 65065E   23316.78772760  .00000078  00000+0  13669-3 0  9992
2 01512  89.9461 215.1207 0070921  30.3035  38.2964 13.33493950833779
CALSPHERE 4A            
1 01520U 65065H   23316.76198980  .00000147  00000+0  26662-3 0  9999
2 01520  89.9564 129.0385 0067490 256.0387 115.1448 13.36006859836604
OPS 5712 (P/L 160)      
1 02826U 67053A   23316.58059392  .00005663  00000+0  13059-2 0  9994
2 02826  69.9248 161.1745 0006247 322.9420  37.1285 14.55750781927258
LES-5                   
1 02866U 67066E   23316.79064128 -.00000079  00000+0  00000+0 0  9994
2 02866   0.7968 168.8686 0055687 120.3984 148.8598  1.09425906120669
SURCAL 159              
1 02872U 67053F   23316.49584546  .00000192  00000+0  16923-3 0  9995
2 02872  69.9743 240.7686 0009751 272.1596  87.8394 13.99102657877628
OPS 5712 (P/L 153)      
1 02874U 67053H   23316.49901704  .00000097  00000+0  10851-3 0  9994
2 02874  69.9746 346.1450 0008750 326.7607  33.2948 13.96522784874452
SURCAL 150B             
1 02909U 67053J   23316.84818873  .00015223  00000+0  23548-2 0  9999
2 02909  69.9415 121.7085 0003488 336.7171  23.3816 14.73329346939445
OPS 3811 (DSP 2)        
1 05204U 71039A   23316.78045962  .00000010  00000+0  00000+0 0  9996
2 05204   2.2305 283.7675 0021307 349.4511 110.8036  0.98159624 15989
RIGIDSPHERE 2 (LCS 4)   
1 05398U 71067E   23316.83144156  .00001143  00000+0  38449-3 0  9992
2 05398  87.6242 241.1388 0063698 129.0216 231.6677 14.35191461738090
OSCAR 7 (AO-7)          
1 07530U 74089B   23316.46755087 -.00000035  00000+0  69875-4 0  9997
2 07530 101.9636 304.2257 0012293 139.1057 339.6619 12.53669094241750
STARLETTE               
1 07646U 75010A   23316.83298144 -.00000144  00000+0 -10389-5 0  9996
2 07646  49.8251 243.9068 0205687 173.4865 186.8775 13.82322315463485
LAGEOS 1                
1 08820U 76039A   23316.28952031 -.00000003  00000+0  00000+0 0  9990
2 08820 109.8183 214.6333 0044711 145.7567 354.5274  6.38664864852606
OPS 8701 (DSP 10)       
1 13086U 82019A   23316.45907409 -.00000091  00000+0  00000+0 0  9990
2 13086  11.2234 316.4314 0004565 247.8602 308.7915  0.98189852 16352
PHASE 3B (AO-10)        
1 14129U 83058B   23315.38162324  .00000059  00000+0  00000+0 0  9996
2 14129  27.4513  13.6298 6036441 219.6400  75.1194  2.05870258275958
UOSAT 2 (UO-11)         
1 14781U 84021B   23316.47895435  .00002363  00000+0  27891-3 0  9999
2 14781  97.6769 287.8737 0009840  76.7066 283.5246 14.85585580116155
AJISAI (EGS)            
1 16908U 86061A   23316.59470161 -.00000046  00000+0  36191-3 0  9996
2 16908  50.0070 181.1903 0011125 289.0095 162.6234 12.44502897362393
TDRS 3                  
1 19548U 88091B   23315.97253249 -.00000284  00000+0  00000+0 0  9991
2 19548  13.3332 347.4630 0038870 330.3749  34.0238  1.00264732115884
COSMOS 1989 (ETALON 1)  
1 19751U 89001C   23316.62790289  .00000054  00000+0  00000+0 0  9996
2 19751  64.4654 104.7245 0023994 214.9253 190.8321  2.13156186271175
COSMOS 2024 (ETALON 2)  
1 20026U 89039C   23316.57343257 -.00000030  00000+0  00000+0 0  9992
2 20026  65.4223 342.9725 0019159 218.0989 141.6015  2.13204401268290
FLTSATCOM 8 (USA 46)    
1 20253U 89077A   23316.51993947 -.00000350  00000+0  00000+0 0  9992
2 20253  12.7036 356.8996 0004340 243.2007 124.3265  1.00271940251126
LUSAT (LO-19)           
1 20442U 90005G   23316.44380641  .00000301  00000+0  12596-3 0  9990
2 20442  98.8628 296.2671 0012776 102.7799 257.4813 14.33365251766581
HST                     
1 20580U 90037B   23316.52810194  .00006331  00000+0  32192-3 0  9991
2 20580  28.4707 359.9432 0002838 178.6199 295.3828 15.14813398643960
SKYNET 4C               
1 20776U 90079A   23316.77680466  .00000142  00000+0  00000+0 0  9991
2 20776  13.6477 356.3095 0002829 234.5555 133.8510  1.00271748121446
USA 65 (DSP 15)         
1 20929U 90095A   23316.27623083 -.00000029  00000+0  00000+0 0  9991
2 20929  14.5983 350.7166 0005666  98.6400 283.8200  0.98397122 16148
TDRS 5                  
1 21639U 91054B   23316.74696443  .00000102  00000+0  00000+0 0  9999
2 21639  14.1909   0.7172 0023360 355.8492 156.6803  1.00274377118206
USA 75 (DSP 16)         
1 21805U 91080B   23316.50590292 -.00000185  00000+0  00000+0 0  9994
2 21805  14.5200 352.3501 0005637 106.1428 246.4191  0.99186250 16309
LAGEOS 2                
1 22195U 92070B   23316.00189568 -.00000009  00000+0  00000+0 0  9997
2 22195  52.6358 145.8766 0138452 132.3062  66.9725  6.47294240734037
TDRS 6                  
1 22314U 93003B   23316.57911565 -.00000279  00000+0  00000+0 0  9998
2 22314  14.1571   4.0105 0010050 163.7821  46.0978  1.00279523112903
